GALAXY 13 (HORIZONS-1)  
1 27954U 03044A   16290.63503295  .00000033  00000-0  00000+0 0  9994
2 27954   0.0456  89.2299 0002244 164.4091 233.5454  1.00272812 47752
ZHONGXING-20            
1 28082U 03052A   16289.91835015 -.00000336  00000-0  00000-0 0  9991
2 28082   3.0227  72.4322 0004988 182.2802 204.0022  1.00274080 47359
YAMAL 202               
1 28089U 03053A   16289.78382565  .00000105  00000-0  00000-0 0  9994
2 28089   0.0463  69.0287 0002614 191.2687  95.6860  1.00276014 47265
AMOS-2                  
1 28132U 03059A   16290.31437439 -.00000048  00000-0  00000+0 0  9997
2 28132   0.2121  89.2436 0002576 115.0730 290.0817  1.00271770 46982
EXPRESS-AM22 (SESAT 2)  
1 28134U 03060A   16291.06239565 -.00000152  00000-0  00000+0 0  9990
2 28134   0.0713 281.7504 0001018 287.9423 278.8994  1.00271684 46874
AMC-10 (GE-10)          
1 28154U 04003A   16289.23567479  .00000075  00000-0  00000+0 0  9997
2 28154   0.0539  61.3173 0001666 105.7543 166.9744  1.00272480 46511
ABS-4 (MOBISAT-1)       
1 28184U 04007A   16291.06466709  .00000026  00000-0  00000+0 0  9998
2 28184   0.0230 261.0753 0001672 304.4810 264.7280  1.00272480 46182
EUTELSAT 7A             
1 28187U 04008A   16290.80517027  .00000033  00000-0  00000+0 0  9991
2 28187   0.0641   2.1731 0005936 204.1560 116.2953  1.00270678 46170
DIRECTV 7S              
1 28238U 04016A   16291.43252350 -.00000015  00000-0  00000+0 0  9993
2 28238   0.0258 318.4514 0003181 258.1650 206.4087  1.00272529 45673
AMC-11 (GE-11)          
1 28252U 04017A   16290.65399862  .00000055  00000-0  00000+0 0  9996
2 28252   0.0566  69.4255 0002611 151.2110 269.4173  1.00271306 45304
INTELSAT 10-02          
1 28358U 04022A   16291.26266999 -.00000026  00000-0  00000+0 0  9990
2 28358   0.0102 211.8490 0000905 329.1961 298.7594  1.00271813 45232
APSTAR 5 (TELSTAR 18)   
1 28364U 04024A   16290.67764791 -.00000308  00000-0  00000+0 0  9999
2 28364   0.0641  89.8575 0002810 120.9022 196.8366  1.00272983 45151
ANIK F2                 
1 28378U 04027A   16290.58982446 -.00000064  00000-0  00000+0 0  9995
2 28378   0.0110  74.3084 0001444 200.0422 212.4445  1.00270427 44958
AMAZONAS 1              
1 28393U 04031A   16290.46790873 -.00000259  00000-0  00000+0 0  9991
2 28393   1.2423  84.7640 0005193 143.1412 289.8006  1.00270635 44726
AMC-15                  
1 28446U 04041A   16291.45064078 -.00000104  00000-0  00000+0 0  9991
2 28446   0.0123  79.1875 0003085 150.2046 214.1565  1.00268026 43997
AMC-16                  
1 28472U 04048A   16291.35860164 -.00000222  00000-0  00000+0 0  9997
2 28472   0.0540  62.1769 0002878 147.4848 220.7485  1.00270897 43421
NSS-10 (AMC-12)         
1 28526U 05003A   16290.38215021 -.00000264  00000-0  00000+0 0  9993
2 28526   0.0287 311.3539 0002931 260.2951 273.8317  1.00271409 42918
XTAR-EUR                
1 28542U 05005A   16289.85055030  .00000138  00000-0  00000+0 0  9994
2 28542   0.0691 271.4365 0002964 299.8854 148.6931  1.00271406 42776
XM-3 (RHYTHM)           
1 28626U 05008A   16291.35860233 -.00000221  00000-0  00000+0 0  9991
2 28626   0.0202  41.2811 0000249 191.7820 197.2324  1.00270174 42679
INMARSAT 4-F1           
1 28628U 05009A   16289.55630909 -.00000272  00000-0  00000+0 0  9994
2 28628   2.8437   8.5202 0003295 210.1154 149.6663  1.00271861 42267
EXPRESS-AM2             
1 28629U 05010A   16291.08630043 -.00000151  00000-0  00000+0 0  9993
2 28629   1.8350  80.2359 0001717 138.7473 278.1514  1.00271214 42318
APSTAR 6                
1 28638U 05012A   16290.85782352 -.00000332  00000-0  00000+0 0  9991
2 28638   0.0299 104.1275 0002547 113.1587 251.3558  1.00270103 67010
SPACEWAY 1              
1 28644U 05015A   16290.58355841 -.00000116  00000-0  00000+0 0  9990
2 28644   0.0151 235.2202 0000377  20.7785 236.6834  1.00270014 42110
DIRECTV 8               
1 28659U 05019A   16291.20749219 -.00000131  00000-0  00000+0 0  9993
2 28659   0.0444  60.4514 0003663 162.2730 137.2786  1.00271063 41798
GALAXY 28 (G-28)        
1 28702U 05022A   16290.25976175 -.00000200  00000-0  00000+0 0  9990
2 28702   0.0105 243.9189 0000612 235.7699 270.0505  1.00279452 41423
EXPRESS-AM3             
1 28707U 05023A   16289.02811281 -.00000334  00000-0  00000+0 0  9993
2 28707   0.0319 302.9862 0000436 349.5306 204.6057  1.00269745 41432
THAICOM 4               
1 28786U 05028A   16290.79708779 -.00000377  00000-0  00000+0 0  9995
2 28786   0.0174 224.0953 0002553 345.3434 222.7288  1.00268752 40928
GALAXY 14 (G-14)        
1 28790U 05030A   16290.40947251  .00000023  00000-0  00000+0 0  9998
2 28790   0.0541  66.0813 0002763 139.6057 202.0965  1.00270400 40890
ANIK F1R                
1 28868U 05036A   16291.35576722 -.00000089  00000-0  00000+0 0  9999
2 28868   0.0490  61.4275 0000557 116.3970 229.2480  1.00269041 40763
GALAXY 15 (G-15)        
1 28884U 05041A   16291.52650652  .00000063  00000-0  00000+0 0  9998
2 28884   0.0516  82.0869 0001555 156.4453 204.4797  1.00273314 40234
SYRACUSE 3A             
1 28885U 05041B   16290.79878519  .00000114  00000-0  00000+0 0  9998
2 28885   0.0115 136.9166 0003447  73.5920 149.7997  1.00272871 40330
INMARSAT 4-F2           
1 28899U 05044A   16289.77631617 -.00000001  00000-0  00000+0 0  9994
2 28899   2.5284   8.3707 0002869 209.6675 150.0757  1.00272154 40094
TELKOM 2                
1 28902U 05046A   16290.92056341 -.00000377  00000-0  00000+0 0  9991
2 28902   0.0155 224.8833 0001192 346.6916 263.6933  1.00269371 39847
SPACEWAY 2              
1 28903U 05046B   16291.52164168 -.00000142  00000-0  00000+0 0  9996
2 28903   0.0260  83.5173 0000283 198.9833 192.7007  1.00271215 40103
INSAT-4A                
1 28911U 05049A   16289.70081641 -.00000179  00000-0  00000-0 0  9990
2 28911   0.0392 104.8769 0006229 134.3623 120.7323  1.00272566 10304
METEOSAT-9 (MSG-2)      
1 28912U 05049B   16291.13983182  .00000053  00000-0  00000+0 0  9991
2 28912   1.7286  69.4456 0001017 162.8990 213.7799  1.00281133 39689
EUTELSAT 172A (GE-23)   
1 28924U 05052A   16288.82763164 -.00000018  00000-0  00000+0 0  9998
2 28924   0.0680  15.1470 0006334 195.8980 282.7206  1.00271954 39564
ECHOSTAR 10             
1 28935U 06003A   16291.52934962 -.00000071  00000-0  00000+0 0  9993
2 28935   0.0568  71.5274 0001858 158.5401 236.8021  1.00272587 39129
HIMAWARI-7 (MTSAT-2)    
1 28937U 06004A   16289.44759106 -.00000256  00000-0  00000-0 0  9995
2 28937   0.0349 274.7472 0003318 288.2898 127.5255  1.00270938 39076
SPAINSAT                
1 28945U 06007A   16291.01119162 -.00000231  00000-0  00000+0 0  9997
2 28945   0.0157 194.7008 0005858  13.4910 151.8081  1.00271505 38833
EUTELSAT HOT BIRD 13E   
1 28946U 06007B   16290.89205655  .00000072  00000-0  00000+0 0  9998
2 28946   0.0404 114.6044 0006949  90.2468 155.1470  1.00270129 38901
JCSAT-5A                
1 29045U 06010A   16290.91299315 -.00000342  00000-0  00000+0 0  9993
2 29045   0.0232 109.5222 0001392  86.1323 290.9374  1.00271366 38548
ASTRA 1KR               
1 29055U 06012A   16291.19868493  .00000105  00000-0  00000+0 0  9992
2 29055   0.0518 276.5604 0005212 303.4101 256.8996  1.00272934 38340
GOES 13                 
1 29155U 06018A   16290.13955383 -.00000261  00000-0  00000+0 0  9991
2 29155   0.0842 111.0358 0001292  46.6312 202.3712  1.00260378 38110
EUTELSAT 113 WEST A     
1 29162U 06020A   16291.24116246 -.00000053  00000-0  00000+0 0  9991
2 29162   0.0661  69.1426 0002753 145.9781 144.8926  1.00272581 38073
THAICOM 5               
1 29163U 06020B   16290.95101377 -.00000136  00000-0  00000+0 0  9990
2 29163   0.0494 274.6641 0006846 332.8062 199.2933  1.00272865 38130
GALAXY 16 (G-16)        
1 29236U 06023A   16291.52705325 -.00000143  00000-0  00000+0 0  9999
2 29236   0.0167 225.9028 0002899 339.0424 272.2678  1.00271556 37875
EUTELSAT HOT BIRD 13B   
1 29270U 06032A   16290.67398679  .00000072  00000-0  00000+0 0  9992
2 29270   0.0889 322.0570 0002996 267.7304  51.4659  1.00271078 37456
JCSAT-3A                
1 29272U 06033A   16290.70743911 -.00000359  00000-0  00000+0 0  9991
2 29272   0.0112 208.2430 0001983 341.0652 219.0184  1.00269472 37364
SYRACUSE 3B             
1 29273U 06033B   16291.18077090 -.00000059  00000-0  00000+0 0  9990
2 29273   0.0131 246.0815 0004430 345.9366 213.9768  1.00269118 37355
KOREASAT 5 (MUGUNGWHA 5)
1 29349U 06034A   16289.85292990 -.00000372  00000-0  00000+0 0  9992
2 29349   0.0314  84.9560 0001247 132.1425 227.8490  1.00272569 37229
ZHONGXING-22A           
1 29398U 06038A   16290.21663501 -.00000328  00000-0  00000+0 0  9993
2 29398   5.3646  59.2674 0008567 170.2413 335.3679  1.00268567 37005
DIRECTV 9S              
1 29494U 06043A   16291.46316696 -.00000129  00000-0  00000+0 0  9993
2 29494   0.0095 177.7632 0003530  28.7853 245.5045  1.00271273 36716
OPTUS D1                
1 29495U 06043B   16291.53538238 -.00000126  00000-0  00000+0 0  9997
2 29495   0.0464  56.9541 0003801 151.7134 170.5534  1.00271052 36753
XM-4 (BLUES)            
1 29520U 06049A   16291.18625228 -.00000038  00000-0  00000+0 0  9991
2 29520   0.0077 277.2325 0000329 299.5571 121.1704  1.00271765 36592
BADR-4                  
1 29526U 06051A   16290.83660315  .00000130  00000-0  00000+0 0  9999
2 29526   0.0539 343.9955 0004330 263.8746 105.0711  1.00272415 36485
FENGYUN 2D              
1 29640U 06053A   16289.94389553 -.00000370  00000-0  10000-3 0  9992
2 29640   4.0004  65.6037 0002068 268.7596 153.8349  1.00264265 36151
WILDBLUE-1              
1 29643U 06054A   16291.53582627 -.00000065  00000-0  00000+0 0  9997
2 29643   0.0598  97.2369 0002032 108.0113 262.9643  1.00271916 36159
AMC-18                  
1 29644U 06054B   16291.14531132 -.00000105  00000-0  00000+0 0  9995
2 29644   0.0468  58.2889 0002860 151.2549 123.9179  1.00271178 36152
